{
  "type": "FeatureCollection",
  "features": [
    {
      "type": "Feature",
      "properties": {
        "name": "All Domain",
        "count": 791
      },
      "geometry": {
        "type": "MultiPolygon",
        "coordinates": [
          [
            [
              [
                75.875,
                11.875
              ],
              [
                76.125,
                11.875
              ],
              [
                76.375,
                11.875
              ],
              [
                76.625,
                11.875
              ],
              [
                76.875,
                11.875
              ],
              [
                77.125,
                11.875
              ],
              [
                77.375,
                11.875
              ],
              [
                77.625,
                11.875
              ],
              [
                77.875,
                11.875
              ],
              [
                78.125,
                11.875
              ],
              [
                78.375,
                11.875
              ],
              [
                78.625,
                11.875
              ],
              [
                78.875,
                11.875
              ],
              [
                79.125,
                11.875
              ],
              [
                79.375,
                11.875
              ],
              [
                79.625,
                11.875
              ],
              [
                79.875,
                11.875
              ],
              [
                79.875,
                12.125
              ],
              [
                79.875,
                12.375
              ],
              [
                80.125,
                12.375
              ],
              [
                80.125,
                12.625
              ],
              [
                80.125,
                12.875
              ],
              [
                80.125,
                13.125
              ],
              [
                80.375,
                13.125
              ],
              [
                80.375,
                13.375
              ],
              [
                80.375,
                13.625
              ],
              [
                80.375,
                13.875
              ],
              [
                80.125,
                13.875
              ],
              [
                80.125,
                14.125
              ],
              [
                80.125,
                14.375
              ],
              [
                80.125,
                14.625
              ],
              [
                80.125,
                14.875
              ],
              [
                80.125,
                15.125
              ],
              [
                80.125,
                15.375
              ],
              [
                80.125,
                15.625
              ],
              [
                80.375,
                15.625
              ],
              [
                80.375,
                15.875
              ],
              [
                80.625,
                15.875
              ],
              [
                80.625,
                15.625
              ],
              [
                80.875,
                15.625
              ],
              [
                80.875,
                15.875
              ],
              [
                81.125,
                15.875
              ],
              [
                81.125,
                16.125
              ],
              [
                81.125,
                16.375
              ],
              [
                81.375,
                16.375
              ],
              [
                81.625,
                16.375
              ],
              [
                81.875,
                16.375
              ],
              [
                82.125,
                16.375
              ],
              [
                82.125,
                16.625
              ],
              [
                82.375,
                16.625
              ],
              [
                82.375,
                16.875
              ],
              [
                82.375,
                17.125
              ],
              [
                82.625,
                17.125
              ],
              [
                82.625,
                17.375
              ],
              [
                82.875,
                17.375
              ],
              [
                82.875,
                17.625
              ],
              [
                83.125,
                17.625
              ],
              [
                83.375,
                17.625
              ],
              [
                83.375,
                17.875
              ],
              [
                83.625,
                17.875
              ],
              [
                83.625,
                18.125
              ],
              [
                83.875,
                18.125
              ],
              [
                83.875,
                18.375
              ],
              [
                84.125,
                18.375
              ],
              [
                84.125,
                18.625
              ],
              [
                84.375,
                18.625
              ],
              [
                84.375,
                18.875
              ],
              [
                84.625,
                18.875
              ],
              [
                84.625,
                19.125
              ],
              [
                84.875,
                19.125
              ],
              [
                84.875,
                19.375
              ],
              [
                85.125,
                19.375
              ],
              [
                85.125,
                19.625
              ],
              [
                85.125,
                19.875
              ],
              [
                85.125,
                20.125
              ],
              [
                84.875,
                20.125
              ],
              [
                84.625,
                20.125
              ],
              [
                84.375,
                20.125
              ],
              [
                84.125,
                20.125
              ],
              [
                83.875,
                20.125
              ],
              [
                83.625,
                20.125
              ],
              [
                83.375,
                20.125
              ],
              [
                83.125,
                20.125
              ],
              [
                82.875,
                20.125
              ],
              [
                82.625,
                20.125
              ],
              [
                82.375,
                20.125
              ],
              [
                82.125,
                20.125
              ],
              [
                81.875,
                20.125
              ],
              [
                81.625,
                20.125
              ],
              [
                81.375,
                20.125
              ],
              [
                81.125,
                20.125
              ],
              [
                80.875,
                20.125
              ],
              [
                80.625,
                20.125
              ],
              [
                80.375,
                20.125
              ],
              [
                80.125,
                20.125
              ],
              [
                79.875,
                20.125
              ],
              [
                79.625,
                20.125
              ],
              [
                79.375,
                20.125
              ],
              [
                79.125,
                20.125
              ],
              [
                78.875,
                20.125
              ],
              [
                78.625,
                20.125
              ],
              [
                78.375,
                20.125
              ],
              [
                78.125,
                20.125
              ],
              [
                77.875,
                20.125
              ],
              [
                77.625,
                20.125
              ],
              [
                77.375,
                20.125
              ],
              [
                77.125,
                20.125
              ],
              [
                76.875,
                20.125
              ],
              [
                76.625,
                20.125
              ],
              [
                76.375,
                20.125
              ],
              [
                76.125,
                20.125
              ],
              [
                75.875,
                20.125
              ],
              [
                75.875,
                19.875
              ],
              [
                75.875,
                19.625
              ],
              [
                75.875,
                19.375
              ],
              [
                75.875,
                19.125
              ],
              [
                75.875,
                18.875
              ],
              [
                75.875,
                18.625
              ],
              [
                75.875,
                18.375
              ],
              [
                75.875,
                18.125
              ],
              [
                75.875,
                17.875
              ],
              [
                75.875,
                17.625
              ],
              [
                75.875,
                17.375
              ],
              [
                75.875,
                17.125
              ],
              [
                75.875,
                16.875
              ],
              [
                75.875,
                16.625
              ],
              [
                75.875,
                16.375
              ],
              [
                75.875,
                16.125
              ],
              [
                75.875,
                15.875
              ],
              [
                75.875,
                15.625
              ],
              [
                75.875,
                15.375
              ],
              [
                75.875,
                15.125
              ],
              [
                75.875,
                14.875
              ],
              [
                75.875,
                14.625
              ],
              [
                75.875,
                14.375
              ],
              [
                75.875,
                14.125
              ],
              [
                75.875,
                13.875
              ],
              [
                75.875,
                13.625
              ],
              [
                75.875,
                13.375
              ],
              [
                75.875,
                13.125
              ],
              [
                75.875,
                12.875
              ],
              [
                75.875,
                12.625
              ],
              [
                75.875,
                12.375
              ],
              [
                75.875,
                12.125
              ],
              [
                75.875,
                11.875
              ]
            ]
          ]
        ]
      }
    },
    {
      "type": "Feature",
      "properties": {
        "name": "Coastal Andhra Pradesh",
        "count": 136
      },
      "geometry": {
        "type": "MultiPolygon",
        "coordinates": [
          [
            [
              [
                80.875,
                15.625
              ],
              [
                80.875,
                15.875
              ],
              [
                81.125,
                15.875
              ],
              [
                81.125,
                16.125
              ],
              [
                81.125,
                16.375
              ],
              [
                81.375,
                16.375
              ],
              [
                81.625,
                16.375
              ],
              [
                81.875,
                16.375
              ],
              [
                82.125,
                16.375
              ],
              [
                82.125,
                16.625
              ],
              [
                82.375,
                16.625
              ],
              [
                82.375,
                16.875
              ],
              [
                82.375,
                17.125
              ],
              [
                82.625,
                17.125
              ],
              [
                82.625,
                17.375
              ],
              [
                82.875,
                17.375
              ],
              [
                82.875,
                17.625
              ],
              [
                83.125,
                17.625
              ],
              [
                83.375,
                17.625
              ],
              [
                83.375,
                17.875
              ],
              [
                83.625,
                17.875
              ],
              [
                83.625,
                18.125
              ],
              [
                83.875,
                18.125
              ],
              [
                83.875,
                18.375
              ],
              [
                84.125,
                18.375
              ],
              [
                84.125,
                18.625
              ],
              [
                84.375,
                18.625
              ],
              [
                84.375,
                18.875
              ],
              [
                84.625,
                18.875
              ],
              [
                84.625,
                19.125
              ],
              [
                84.375,
                19.125
              ],
              [
                84.125,
                19.125
              ],
              [
                83.875,
                19.125
              ],
              [
                83.625,
                19.125
              ],
              [
                83.375,
                19.125
              ],
              [
                83.125,
                19.125
              ],
              [
                82.875,
                19.125
              ],
              [
                82.625,
                19.125
              ],
              [
                82.375,
                19.125
              ],
              [
                82.125,
                19.125
              ],
              [
                81.875,
                19.125
              ],
              [
                81.625,
                19.125
              ],
              [
                81.375,
                19.125
              ],
              [
                81.125,
                19.125
              ],
              [
                80.875,
                19.125
              ],
              [
                80.625,
                19.125
              ],
              [
                80.375,
                19.125
              ],
              [
                80.375,
                18.875
              ],
              [
                80.375,
                18.625
              ],
              [
                80.375,
                18.375
              ],
              [
                80.375,
                18.125
              ],
              [
                80.375,
                17.875
              ],
              [
                80.375,
                17.625
              ],
              [
                80.375,
                17.375
              ],
              [
                80.375,
                17.125
              ],
              [
                80.375,
                16.875
              ],
              [
                80.375,
                16.625
              ],
              [
                80.375,
                16.375
              ],
              [
                80.375,
                16.125
              ],
              [
                80.375,
                15.875
              ],
              [
                80.625,
                15.875
              ],
              [
                80.625,
                15.625
              ],
              [
                80.875,
                15.625
              ]
            ]
          ]
        ]
      }
    },
    {
      "type": "Feature",
      "properties": {
        "name": "Other",
        "count": 90
      },
      "geometry": {
        "type": "MultiPolygon",
        "coordinates": [
          [
            [
              [
                80.125,
                12.375
              ],
              [
                80.125,
                12.625
              ],
              [
                80.125,
                12.875
              ],
              [
                80.125,
                13.125
              ],
              [
                80.375,
                13.125
              ],
              [
                80.375,
                13.375
              ],
              [
                80.375,
                13.625
              ],
              [
                80.375,
                13.875
              ],
              [
                80.125,
                13.875
              ],
              [
                80.125,
                14.125
              ],
              [
                80.125,
                14.375
              ],
              [
                80.125,
                14.625
              ],
              [
                80.125,
                14.875
              ],
              [
                80.125,
                15.125
              ],
              [
                80.125,
                15.375
              ],
              [
                79.875,
                15.375
              ],
              [
                79.875,
                15.125
              ],
              [
                79.875,
                14.875
              ],
              [
                79.875,
                14.625
              ],
              [
                79.875,
                14.375
              ],
              [
                79.875,
                14.125
              ],
              [
                79.875,
                13.875
              ],
              [
                79.875,
                13.625
              ],
              [
                79.875,
                13.375
              ],
              [
                79.875,
                13.125
              ],
              [
                79.875,
                12.875
              ],
              [
                79.875,
                12.625
              ],
              [
                79.875,
                12.375
              ],
              [
                80.125,
                12.375
              ]
            ]
          ],
          [
            [
              [
                80.375,
                19.125
              ],
              [
                80.625,
                19.125
              ],
              [
                80.875,
                19.125
              ],
              [
                81.125,
                19.125
              ],
              [
                81.375,
                19.125
              ],
              [
                81.625,
                19.125
              ],
              [
                81.875,
                19.125
              ],
              [
                82.125,
                19.125
              ],
              [
                82.375,
                19.125
              ],
              [
                82.625,
                19.125
              ],
              [
                82.875,
                19.125
              ],
              [
                83.125,
                19.125
              ],
              [
                83.375,
                19.125
              ],
              [
                83.625,
                19.125
              ],
              [
                83.875,
                19.125
              ],
              [
                84.125,
                19.125
              ],
              [
                84.375,
                19.125
              ],
              [
                84.625,
                19.125
              ],
              [
                84.875,
                19.125
              ],
              [
                84.875,
                19.375
              ],
              [
                85.125,
                19.375
              ],
              [
                85.125,
                19.625
              ],
              [
                85.125,
                19.875
              ],
              [
                85.125,
                20.125
              ],
              [
                84.875,
                20.125
              ],
              [
                84.625,
                20.125
              ],
              [
                84.375,
                20.125
              ],
              [
                84.125,
                20.125
              ],
              [
                83.875,
                20.125
              ],
              [
                83.625,
                20.125
              ],
              [
                83.375,
                20.125
              ],
              [
                83.125,
                20.125
              ],
              [
                82.875,
                20.125
              ],
              [
                82.625,
                20.125
              ],
              [
                82.375,
                20.125
              ],
              [
                82.125,
                20.125
              ],
              [
                81.875,
                20.125
              ],
              [
                81.625,
                20.125
              ],
              [
                81.375,
                20.125
              ],
              [
                81.125,
                20.125
              ],
              [
                80.875,
                20.125
              ],
              [
                80.625,
                20.125
              ],
              [
                80.375,
                20.125
              ],
              [
                80.375,
                19.875
              ],
              [
                80.375,
                19.625
              ],
              [
                80.375,
                19.375
              ],
              [
                80.375,
                19.125
              ]
            ]
          ]
        ]
      }
    },
    {
      "type": "Feature",
      "properties": {
        "name": "Rayalaseema",
        "count": 224
      },
      "geometry": {
        "type": "MultiPolygon",
        "coordinates": [
          [
            [
              [
                75.875,
                11.875
              ],
              [
                76.125,
                11.875
              ],
              [
                76.375,
                11.875
              ],
              [
                76.625,
                11.875
              ],
              [
                76.875,
                11.875
              ],
              [
                77.125,
                11.875
              ],
              [
                77.375,
                11.875
              ],
              [
                77.625,
                11.875
              ],
              [
                77.875,
                11.875
              ],
              [
                78.125,
                11.875
              ],
              [
                78.375,
                11.875
              ],
              [
                78.625,
                11.875
              ],
              [
                78.875,
                11.875
              ],
              [
                79.125,
                11.875
              ],
              [
                79.375,
                11.875
              ],
              [
                79.625,
                11.875
              ],
              [
                79.875,
                11.875
              ],
              [
                79.875,
                12.125
              ],
              [
                79.875,
                12.375
              ],
              [
                79.875,
                12.625
              ],
              [
                79.875,
                12.875
              ],
              [
                79.875,
                13.125
              ],
              [
                79.875,
                13.375
              ],
              [
                79.875,
                13.625
              ],
              [
                79.875,
                13.875
              ],
              [
                79.875,
                14.125
              ],
              [
                79.875,
                14.375
              ],
              [
                79.875,
                14.625
              ],
              [
                79.875,
                14.875
              ],
              [
                79.875,
                15.125
              ],
              [
                79.875,
                15.375
              ],
              [
                79.625,
                15.375
              ],
              [
                79.375,
                15.375
              ],
              [
                79.125,
                15.375
              ],
              [
                78.875,
                15.375
              ],
              [
                78.625,
                15.375
              ],
              [
                78.375,
                15.375
              ],
              [
                78.125,
                15.375
              ],
              [
                77.875,
                15.375
              ],
              [
                77.625,
                15.375
              ],
              [
                77.375,
                15.375
              ],
              [
                77.125,
                15.375
              ],
              [
                76.875,
                15.375
              ],
              [
                76.625,
                15.375
              ],
              [
                76.375,
                15.375
              ],
              [
                76.125,
                15.375
              ],
              [
                75.875,
                15.375
              ],
              [
                75.875,
                15.125
              ],
              [
                75.875,
                14.875
              ],
              [
                75.875,
                14.625
              ],
              [
                75.875,
                14.375
              ],
              [
                75.875,
                14.125
              ],
              [
                75.875,
                13.875
              ],
              [
                75.875,
                13.625
              ],
              [
                75.875,
                13.375
              ],
              [
                75.875,
                13.125
              ],
              [
                75.875,
                12.875
              ],
              [
                75.875,
                12.625
              ],
              [
                75.875,
                12.375
              ],
              [
                75.875,
                12.125
              ],
              [
                75.875,
                11.875
              ]
            ]
          ]
        ]
      }
    },
    {
      "type": "Feature",
      "properties": {
        "name": "Telangana",
        "count": 341
      },
      "geometry": {
        "type": "MultiPolygon",
        "coordinates": [
          [
            [
              [
                75.875,
                15.375
              ],
              [
                76.125,
                15.375
              ],
              [
                76.375,
                15.375
              ],
              [
                76.625,
                15.375
              ],
              [
                76.875,
                15.375
              ],
              [
                77.125,
                15.375
              ],
              [
                77.375,
                15.375
              ],
              [
                77.625,
                15.375
              ],
              [
                77.875,
                15.375
              ],
              [
                78.125,
                15.375
              ],
              [
                78.375,
                15.375
              ],
              [
                78.625,
                15.375
              ],
              [
                78.875,
                15.375
              ],
              [
                79.125,
                15.375
              ],
              [
                79.375,
                15.375
              ],
              [
                79.625,
                15.375
              ],
              [
                79.875,
                15.375
              ],
              [
                80.125,
                15.375
              ],
              [
                80.125,
                15.625
              ],
              [
                80.375,
                15.625
              ],
              [
                80.375,
                15.875
              ],
              [
                80.375,
                16.125
              ],
              [
                80.375,
                16.375
              ],
              [
                80.375,
                16.625
              ],
              [
                80.375,
                16.875
              ],
              [
                80.375,
                17.125
              ],
              [
                80.375,
                17.375
              ],
              [
                80.375,
                17.625
              ],
              [
                80.375,
                17.875
              ],
              [
                80.375,
                18.125
              ],
              [
                80.375,
                18.375
              ],
              [
                80.375,
                18.625
              ],
              [
                80.375,
                18.875
              ],
              [
                80.375,
                19.125
              ],
              [
                80.375,
                19.375
              ],
              [
                80.375,
                19.625
              ],
              [
                80.375,
                19.875
              ],
              [
                80.375,
                20.125
              ],
              [
                80.125,
                20.125
              ],
              [
                79.875,
                20.125
              ],
              [
                79.625,
                20.125
              ],
              [
                79.375,
                20.125
              ],
              [
                79.125,
                20.125
              ],
              [
                78.875,
                20.125
              ],
              [
                78.625,
                20.125
              ],
              [
                78.375,
                20.125
              ],
              [
                78.125,
                20.125
              ],
              [
                77.875,
                20.125
              ],
              [
                77.625,
                20.125
              ],
              [
                77.375,
                20.125
              ],
              [
                77.125,
                20.125
              ],
              [
                76.875,
                20.125
              ],
              [
                76.625,
                20.125
              ],
              [
                76.375,
                20.125
              ],
              [
                76.125,
                20.125
              ],
              [
                75.875,
                20.125
              ],
              [
                75.875,
                19.875
              ],
              [
                75.875,
                19.625
              ],
              [
                75.875,
                19.375
              ],
              [
                75.875,
                19.125
              ],
              [
                75.875,
                18.875
              ],
              [
                75.875,
                18.625
              ],
              [
                75.875,
                18.375
              ],
              [
                75.875,
                18.125
              ],
              [
                75.875,
                17.875
              ],
              [
                75.875,
                17.625
              ],
              [
                75.875,
                17.375
              ],
              [
                75.875,
                17.125
              ],
              [
                75.875,
                16.875
              ],
              [
                75.875,
                16.625
              ],
              [
                75.875,
                16.375
              ],
              [
                75.875,
                16.125
              ],
              [
                75.875,
                15.875
              ],
              [
                75.875,
                15.625
              ],
              [
                75.875,
                15.375
              ]
            ]
          ]
        ]
      }
    }
  ]
}